OBJECT_NAME,OBJECT_ID,EPOCH,MEAN_MOTION,ECCENTRICITY,INCLINATION,RA_OF_ASC_NODE,ARG_OF_PERICENTER,MEAN_ANOMALY,EPHEMERIS_TYPE,CLASSIFICATION_TYPE,NORAD_CAT_ID,ELEMENT_SET_NO,REV_AT_EPOCH,BSTAR,MEAN_MOTION_DOT,MEAN_MOTION_DDOT
UMBRA-10,2024-149CH,2026-06-16T17:41:53.172672,15.18030439,.0000493,97.6983,254.9626,71.7039,288.4247,0,U,60547,999,10066,.64287E-3,.13025E-3,0
ICEYE-X33,2024-149CJ,2026-06-17T02:27:33.115968,15.00885229,.0001897,97.7284,247.2443,98.5029,261.6410,0,U,60548,999,10019,.29727E-3,.3723E-4,0
ICEYE-X40,2024-149CK,2026-06-17T02:27:08.784000,14.97942118,.0006629,97.6820,244.5991,82.3690,277.8284,0,U,60549,999,10006,.18556E-3,.213E-4,0
SATELIOT_1,2024-149CL,2026-06-16T18:13:32.558304,14.98067174,.0008366,97.6754,243.6640,81.9705,278.2466,0,U,60550,999,10000,.20993E-3,.2426E-4,0
BRO-14,2024-149CM,2026-06-16T17:27:07.329024,14.96175373,.0008054,97.6874,243.5132,97.9385,262.2750,0,U,60551,999,9992,.55948E-4,.573E-5,0
SATELIOT_3,2024-149CN,2026-06-16T22:27:11.132064,14.98052174,.0005866,97.6815,244.6293,87.1097,273.0797,0,U,60552,999,10004,.14245E-3,.1626E-4,0
BRO-15,2024-149CP,2026-06-16T17:01:50.607264,14.96166191,.0009663,97.6809,243.0978,89.5707,270.6621,0,U,60553,999,9993,.18684E-3,.2049E-4,0
UM5-RIBAT,2024-149CQ,2026-06-16T17:43:59.632896,15.01073927,.0003517,97.6637,245.5455,62.7656,297.3926,0,U,60554,999,10012,.19793E-3,.2472E-4,0
UM5-EOSAT,2024-149CR,2026-06-17T02:31:33.936960,15.01530488,.0008811,97.6712,246.8419,114.6903,245.5239,0,U,60555,999,10020,.28849E-3,.3677E-4,0
LASARSAT,2024-247Q,2026-06-16T23:25:46.452576,15.46364825,.000818,44.9742,263.4006,330.0323,30.0098,0,U,62391,999,8328,.52389E-3,.26221E-3,0
CROCUBE,2024-247T,2026-06-14T14:05:15.116064,15.48102542,.0008187,44.9722,274.1999,320.7516,39.2780,0,U,62394,999,8294,.65094E-3,.34757E-3,0
TEVEL2-4,2025-052D,2026-06-16T23:40:40.632960,15.34605865,.000486,97.3904,64.3780,103.4475,256.7310,0,U,63213,999,7008,.48034E-3,.16047E-3,0
TEVEL2-5,2025-052E,2026-06-16T22:36:15.547104,15.34430962,.0004796,97.3902,64.2812,104.9018,255.2757,0,U,63214,999,7007,.46132E-3,.15322E-3,0
TEVEL2-6,2025-052F,2026-06-17T03:35:44.034144,15.34400540,.0004692,97.3903,64.4736,104.9299,255.2464,0,U,63215,999,7010,.4315E-3,.14311E-3,0
TEVEL2-1,2025-052H,2026-06-16T23:35:41.335584,15.33862790,.0004776,97.3878,63.9315,114.0246,246.1497,0,U,63217,999,7006,.46759E-3,.15254E-3,0
TEVEL2-3,2025-052J,2026-06-16T23:27:59.118048,15.33918227,.0004723,97.3882,63.9480,114.1810,245.9927,0,U,63218,999,7006,.46354E-3,.15147E-3,0
TEVEL2-2,2025-052K,2026-06-16T15:46:26.181408,15.33861744,.0004715,97.3883,63.6082,115.1533,245.0199,0,U,63219,999,7001,.44263E-3,.14434E-3,0
TEVEL2-9,2025-052AD,2026-06-16T23:03:14.925888,15.31891765,.0007801,97.3943,63.2870,131.5476,228.6436,0,U,63237,999,6999,.42947E-3,.13167E-3,0
TEVEL2-7,2025-052AE,2026-06-16T16:11:41.423136,15.31589641,.0007828,97.3945,62.9183,132.5601,227.6303,0,U,63238,999,6994,.41668E-3,.12652E-3,0
TEVEL2-8,2025-052AF,2026-06-16T16:23:33.918144,15.31573973,.0007849,97.3946,62.9032,133.0156,227.1744,0,U,63239,999,6994,.40821E-3,.12386E-3,0
FORESAIL-1 PRIME,2025-276DS,2026-06-16T23:55:03.228960,15.18701638,.0003952,97.4201,241.2708,103.8378,256.3296,0,U,66778,999,3037,.2032E-3,.4149E-4,0
